{"type": "FeatureCollection", "features": [ {"type": "Feature", "properties": {"norad_id": 33867, "name": "IRIDIUM 33 DEB", "group": "iridium-33-debris", "lat": -85.56019111518984, "lon": -131.80066192546994, "alt_km": 408.1322013837498, "timestamp": "2025-12-06T18:50:10.554132+00:00", "meta": {"OBJECT_NAME": "IRIDIUM 33 DEB", "OBJECT_ID": "1997-051AL", "EPOCH": "2025-12-06T06:54:06.113664", "MEAN_MOTION": 15.57665261, "ECCENTRICITY": 0.00123399, "INCLINATION": 86.3623, "RA_OF_ASC_NODE": 353.4303, "ARG_OF_PERICENTER": 93.8266, "MEAN_ANOMALY": 266.4409, "EPHEMERIS_TYPE": 0, "CLASSIFICATION_TYPE": "U", "NORAD_CAT_ID": 33867, "ELEMENT_SET_NO": 999, "REV_AT_EPOCH": 89410, "BSTAR": 0.0094799239, "MEAN_MOTION_DOT": 0.00759133, "MEAN_MOTION_DDOT": 0}, "tle": {"line1": "1 33867U 97051AL  25340.28757076  .00759133  00000+0  94799-2 0  9992", "line2": "2 33867  86.3623 353.4303 0012339  93.8266 266.4409 15.57665261894107"}}, "geometry": {"type": "Point", "coordinates": [-131.80066192546994, -85.56019111518984]}}, {"type": "Feature", "properties": {"norad_id": 33870, "name": "IRIDIUM 33 DEB", "group": "iridium-33-debris", "lat": -48.77399382757207, "lon": 56.66532057955085, "alt_km": 752.1682200621262, "timestamp": "2025-12-06T18:50:10.554143+00:00", "meta": {"OBJECT_NAME": "IRIDIUM 33 DEB", "OBJECT_ID": "1997-051AP", "EPOCH": "2025-12-06T04:13:53.353344", "MEAN_MOTION": 14.45794966, "ECCENTRICITY": 0.00207754, "INCLINATION": 86.3755, "RA_OF_ASC_NODE": 61.0743, "ARG_OF_PERICENTER": 199.8984, "MEAN_ANOMALY": 185.7515, "EPHEMERIS_TYPE": 0, "CLASSIFICATION_TYPE": "U", "NORAD_CAT_ID": 33870, "ELEMENT_SET_NO": 999, "REV_AT_EPOCH": 88042, "BSTAR": 0.0014452695, "MEAN_MOTION_DOT": 5.158e-05, "MEAN_MOTION_DDOT": 0}, "tle": {"line1": "1 33870U 97051AP  25340.17631196  .00005158  00000+0  14453-2 0  9998", "line2": "2 33870  86.3755  61.0743 0020775 199.8984 185.7515 14.45794966880426"}}, "geometry": {"type": "Point", "coordinates": [56.66532057955085, -48.77399382757207]}}, {"type": "Feature", "properties": {"norad_id": 33881, "name": "IRIDIUM 33 DEB", "group": "iridium-33-debris", "lat": -48.31816777987468, "lon": 105.26015920429874, "alt_km": 731.690500235547, "timestamp": "2025-12-06T18:50:10.554154+00:00", "meta": {"OBJECT_NAME": "IRIDIUM 33 DEB", "OBJECT_ID": "1997-051BA", "EPOCH": "2025-12-05T20:31:44.051808", "MEAN_MOTION": 14.56380103, "ECCENTRICITY": 0.006125, "INCLINATION": 86.3871, "RA_OF_ASC_NODE": 109.733, "ARG_OF_PERICENTER": 197.0715, "MEAN_ANOMALY": 283.839, "EPHEMERIS_TYPE": 0, "CLASSIFICATION_TYPE": "U", "NORAD_CAT_ID": 33881, "ELEMENT_SET_NO": 999, "REV_AT_EPOCH": 87400, "BSTAR": 0.0035632862, "MEAN_MOTION_DOT": 0.00016254, "MEAN_MOTION_DDOT": 0}, "tle": {"line1": "1 33881U 97051BA  25339.85537097  .00016254  00000+0  35633-2 0  9990", "line2": "2 33881  86.3871 109.7330 0061250 197.0715 283.8390 14.56380103874008"}}, "geometry": {"type": "Point", "coordinates": [105.26015920429874, -48.31816777987468]}}, {"type": "Feature", "properties": {"norad_id": 33884, "name": "IRIDIUM 33 DEB", "group": "iridium-33-debris", "lat": 8.5440364894925, "lon": -168.04034489814848, "alt_km": 647.147143486749, "timestamp": "2025-12-06T18:50:10.554164+00:00", "meta": {"OBJECT_NAME": "IRIDIUM 33 DEB", "OBJECT_ID": "1997-051BD", "EPOCH": "2025-12-06T08:22:17.400864", "MEAN_MOTION": 14.77245967, "ECCENTRICITY": 0.00103461, "INCLINATION": 86.3691, "RA_OF_ASC_NODE": 12.703, "ARG_OF_PERICENTER": 347.5842, "MEAN_ANOMALY": 26.4048, "EPHEMERIS_TYPE": 0, "CLASSIFICATION_TYPE": "U", "NORAD_CAT_ID": 33884, "ELEMENT_SET_NO": 999, "REV_AT_EPOCH": 88753, "BSTAR": 0.0022939215, "MEAN_MOTION_DOT": 0.00016315, "MEAN_MOTION_DDOT": 0}, "tle": {"line1": "1 33884U 97051BD  25340.34881251  .00016315  00000+0  22939-2 0  9996", "line2": "2 33884  86.3691  12.7030 0010346 347.5842  26.4048 14.77245967887538"}}, "geometry": {"type": "Point", "coordinates": [-168.04034489814848, 8.5440364894925]}}, {"type": "Feature", "properties": {"norad_id": 33886, "name": "IRIDIUM 33 DEB", "group": "iridium-33-debris", "lat": -80.27624739686031, "lon": -88.60392550197227, "alt_km": 770.4377342628195, "timestamp": "2025-12-06T18:50:10.554175+00:00", "meta": {"OBJECT_NAME": "IRIDIUM 33 DEB", "OBJECT_ID": "1997-051BF", "EPOCH": "2025-12-06T00:02:04.981920", "MEAN_MOTION": 14.36038974, "ECCENTRICITY": 0.00120797, "INCLINATION": 86.3831, "RA_OF_ASC_NODE": 70.0646, "ARG_OF_PERICENTER": 267.6196, "MEAN_ANOMALY": 265.9363, "EPHEMERIS_TYPE": 0, "CLASSIFICATION_TYPE": "U", "NORAD_CAT_ID": 33886, "ELEMENT_SET_NO": 999, "REV_AT_EPOCH": 87955, "BSTAR": 0.0003752743, "MEAN_MOTION_DOT": 1.111e-05, "MEAN_MOTION_DDOT": 0}, "tle": {"line1": "1 33886U 97051BF  25340.00144655  .00001111  00000+0  37527-3 0  9999", "line2": "2 33886  86.3831  70.0646 0012079 267.6196 265.9363 14.36038974879551"}}, "geometry": {"type": "Point", "coordinates": [-88.60392550197227, -80.27624739686031]}}, {"type": "Feature", "properties": {"norad_id": 33887, "name": "IRIDIUM 33 DEB", "group": "iridium-33-debris", "lat": 7.768776879121264, "lon": -174.54658995331107, "alt_km": 769.3705002451889, "timestamp": "2025-12-06T18:50:10.554186+00:00", "meta": {"OBJECT_NAME": "IRIDIUM 33 DEB", "OBJECT_ID": "1997-051BG", "EPOCH": "2025-12-06T08:06:28.753056", "MEAN_MOTION": 14.37212658, "ECCENTRICITY": 0.00040789, "INCLINATION": 86.3048, "RA_OF_ASC_NODE": 6.1511, "ARG_OF_PERICENTER": 256.9611, "MEAN_ANOMALY": 123.8244, "EPHEMERIS_TYPE": 0, "CLASSIFICATION_TYPE": "U", "NORAD_CAT_ID": 33887, "ELEMENT_SET_NO": 999, "REV_AT_EPOCH": 88073, "BSTAR": 0.00027683499, "MEAN_MOTION_DOT": 8.43e-06, "MEAN_MOTION_DDOT": 0}, "tle": {"line1": "1 33887U 97051BG  25340.33783279  .00000843  00000+0  27683-3 0  9990", "line2": "2 33887  86.3048   6.1511 0004078 256.9611 123.8244 14.37212658880732"}}, "geometry": {"type": "Point", "coordinates": [-174.54658995331107, 7.768776879121264]}}, {"type": "Feature", "properties": {"norad_id": 33953, "name": "IRIDIUM 33 DEB", "group": "iridium-33-debris", "lat": 0.7422871092864677, "lon": 56.41091416169683, "alt_km": 718.1050354636509, "timestamp": "2025-12-06T18:50:10.554196+00:00", "meta": {"OBJECT_NAME": "IRIDIUM 33 DEB", "OBJECT_ID": "1997-051BN", "EPOCH": "2025-12-05T23:50:27.951648", "MEAN_MOTION": 14.55218556, "ECCENTRICITY": 0.00185309, "INCLINATION": 86.3851, "RA_OF_ASC_NODE": 56.7073, "ARG_OF_PERICENTER": 123.3499, "MEAN_ANOMALY": 54.0321, "EPHEMERIS_TYPE": 0, "CLASSIFICATION_TYPE": "U", "NORAD_CAT_ID": 33953, "ELEMENT_SET_NO": 999, "REV_AT_EPOCH": 88205, "BSTAR": 0.0020564879, "MEAN_MOTION_DOT": 8.94e-05, "MEAN_MOTION_DDOT": 0}, "tle": {"line1": "1 33953U 97051BN  25339.99337907  .00008940  00000+0  20565-2 0  9994", "line2": "2 33953  86.3851  56.7073 0018530 123.3499  54.0321 14.55218556882052"}}, "geometry": {"type": "Point", "coordinates": [56.41091416169683, 0.7422871092864677]}}, {"type": "Feature", "properties": {"norad_id": 33960, "name": "IRIDIUM 33 DEB", "group": "iridium-33-debris", "lat": -69.97114722598005, "lon": 122.67556288141678, "alt_km": 626.9648528334747, "timestamp": "2025-12-06T18:50:10.554207+00:00", "meta": {"OBJECT_NAME": "IRIDIUM 33 DEB", "OBJECT_ID": "1997-051BV", "EPOCH": "2025-12-05T20:56:06.827136", "MEAN_MOTION": 14.84637403, "ECCENTRICITY": 0.00073215, "INCLINATION": 86.2534, "RA_OF_ASC_NODE": 292.7499, "ARG_OF_PERICENTER": 71.7421, "MEAN_ANOMALY": 344.3493, "EPHEMERIS_TYPE": 0, "CLASSIFICATION_TYPE": "U", "NORAD_CAT_ID": 33960, "ELEMENT_SET_NO": 999, "REV_AT_EPOCH": 88765, "BSTAR": 0.005328277, "MEAN_MOTION_DOT": 0.00045322, "MEAN_MOTION_DDOT": 0}, "tle": {"line1": "1 33960U 97051BV  25339.87230124  .00045322  00000+0  53283-2 0  9990", "line2": "2 33960  86.2534 292.7499 0007321  71.7421 344.3493 14.84637403887652"}}, "geometry": {"type": "Point", "coordinates": [122.67556288141678, -69.97114722598005]}}, {"type": "Feature", "properties": {"norad_id": 33966, "name": "IRIDIUM 33 DEB", "group": "iridium-33-debris", "lat": -68.96469690686453, "lon": -121.97641646556205, "alt_km": 730.8167609958509, "timestamp": "2025-12-06T18:50:10.554218+00:00", "meta": {"OBJECT_NAME": "IRIDIUM 33 DEB", "OBJECT_ID": "1997-051CB", "EPOCH": "2025-12-06T04:33:59.120640", "MEAN_MOTION": 14.49551891, "ECCENTRICITY": 0.00066741, "INCLINATION": 86.393, "RA_OF_ASC_NODE": 48.8381, "ARG_OF_PERICENTER": 211.361, "MEAN_ANOMALY": 177.0583, "EPHEMERIS_TYPE": 0, "CLASSIFICATION_TYPE": "U", "NORAD_CAT_ID": 33966, "ELEMENT_SET_NO": 999, "REV_AT_EPOCH": 88347, "BSTAR": 0.0010231786, "MEAN_MOTION_DOT": 3.944e-05, "MEAN_MOTION_DDOT": 0}, "tle": {"line1": "1 33966U 97051CB  25340.19026760  .00003944  00000+0  10232-2 0  9993", "line2": "2 33966  86.3930  48.8381 0006674 211.3610 177.0583 14.49551891883475"}}, "geometry": {"type": "Point", "coordinates": [-121.97641646556205, -68.96469690686453]}}, {"type": "Feature", "properties": {"norad_id": 34071, "name": "IRIDIUM 33 DEB", "group": "iridium-33-debris", "lat": -41.679999415015324, "lon": 17.155391274054487, "alt_km": 740.8266742019096, "timestamp": "2025-12-06T18:50:10.554228+00:00", "meta": {"OBJECT_NAME": "IRIDIUM 33 DEB", "OBJECT_ID": "1997-051CE", "EPOCH": "2025-12-06T00:48:11.303424", "MEAN_MOTION": 14.49419085, "ECCENTRICITY": 0.00096471, "INCLINATION": 86.3459, "RA_OF_ASC_NODE": 20.7435, "ARG_OF_PERICENTER": 125.7564, "MEAN_ANOMALY": 234.4539, "EPHEMERIS_TYPE": 0, "CLASSIFICATION_TYPE": "U", "NORAD_CAT_ID": 34071, "ELEMENT_SET_NO": 999, "REV_AT_EPOCH": 88237, "BSTAR": 0.0010855962, "MEAN_MOTION_DOT": 4.173e-05, "MEAN_MOTION_DDOT": 0}, "tle": {"line1": "1 34071U 97051CE  25340.03346416  .00004173  00000+0  10856-2 0  9994", "line2": "2 34071  86.3459  20.7435 0009647 125.7564 234.4539 14.49419085882372"}}, "geometry": {"type": "Point", "coordinates": [17.155391274054487, -41.679999415015324]}}]}